[{"norad_id":"47733","company":"STARLINK","tle_line2":"2 47733  53.0555 343.3810 0001522 102.3749 257.7411 15.06387738261461","launch_date":"2021-03-04","type":"LEO","tle_line1":"1 47733U 21017M   25326.37270684 -.00002047  00000+0 -11861-3 0  9994","satellite_name":"STARLINK-2143"},{"norad_id":"47734","company":"STARLINK","tle_line2":"2 47734  53.0552 333.5928 0001213  88.1900 271.9228 15.06406454261569","launch_date":"2021-03-04","type":"LEO","tle_line1":"1 47734U 21017N   25326.32570098  .00002221  00000+0  16793-3 0  9993","satellite_name":"STARLINK-2144"},{"norad_id":"47736","company":"STARLINK","tle_line2":"2 47736  53.0550 324.0367 0001548  98.1290 261.9875 15.06405507261728","launch_date":"2021-03-04","type":"LEO","tle_line1":"1 47736U 21017Q   25326.22710754  .00002573  00000+0  19156-3 0  9995","satellite_name":"STARLINK-2147"},{"norad_id":"47739","company":"STARLINK","tle_line2":"2 47739  53.0553 345.1830 0001507  84.4173 275.6988 15.06396592261502","launch_date":"2021-03-04","type":"LEO","tle_line1":"1 47739U 21017T   25327.08545968 -.00002478  00000+0 -14756-3 0  9993","satellite_name":"STARLINK-2150"},{"norad_id":"47742","company":"STARLINK","tle_line2":"2 47742  53.0547 324.0198 0001505  81.9229 278.1931 15.06389239261724","launch_date":"2021-03-04","type":"LEO","tle_line1":"1 47742U 21017W   25326.23078363  .00008026  00000+0  55725-3 0  9997","satellite_name":"STARLINK-2156"},{"norad_id":"47745","company":"STARLINK","tle_line2":"2 47745  53.0552 332.9816 0001522 102.5855 257.5304 15.06414473261568","launch_date":"2021-03-04","type":"LEO","tle_line1":"1 47745U 21017Z   25326.46206992  .00004083  00000+0  29270-3 0  9991","satellite_name":"STARLINK-2159"},{"norad_id":"47746","company":"STARLINK","tle_line2":"2 47746  53.0550 333.0147 0001542  93.2508 266.8657 15.06410789261558","launch_date":"2021-03-04","type":"LEO","tle_line1":"1 47746U 21017AA  25326.45470742  .00004068  00000+0  29175-3 0  9994","satellite_name":"STARLINK-2160"},{"norad_id":"47747","company":"STARLINK","tle_line2":"2 47747  53.0539 323.6211 0001424  91.4144 268.7008 15.06417763261716","launch_date":"2021-03-04","type":"LEO","tle_line1":"1 47747U 21017AB  25326.31924979  .00009593  00000+0  66170-3 0  9990","satellite_name":"STARLINK-2161"},{"norad_id":"47748","company":"STARLINK","tle_line2":"2 47748  53.0559 323.6556 0001369  89.9280 270.1866 15.06411311261680","launch_date":"2021-03-04","type":"LEO","tle_line1":"1 47748U 21017AC  25326.31186972  .00001720  00000+0  13429-3 0  9997","satellite_name":"STARLINK-2162"},{"norad_id":"47749","company":"STARLINK","tle_line2":"2 47749  53.0537 320.0123 0001341  66.3984 293.7146 15.06381220261809","launch_date":"2021-03-04","type":"LEO","tle_line1":"1 47749U 21017AD  25327.12279499  .00011463  00000+0  78755-3 0  9993","satellite_name":"STARLINK-2163"},{"norad_id":"47750","company":"STARLINK","tle_line2":"2 47750  53.0545 323.3894 0001489  87.0752 273.0408 15.06411713261697","launch_date":"2021-03-04","type":"LEO","tle_line1":"1 47750U 21017AE  25326.37085182  .00004430  00000+0  31601-3 0  9990","satellite_name":"STARLINK-2164"},{"norad_id":"47752","company":"STARLINK","tle_line2":"2 47752  53.0551 328.6986 0001349  90.3892 269.7251 15.06424273261663","launch_date":"2021-03-04","type":"LEO","tle_line1":"1 47752U 21017AG  25326.30219366  .00007237  00000+0  50390-3 0  9992","satellite_name":"STARLINK-2169"},{"norad_id":"47753","company":"STARLINK","tle_line2":"2 47753  53.0544 333.5110 0001674  80.7104 279.4074 15.06437910261595","launch_date":"2021-03-04","type":"LEO","tle_line1":"1 47753U 21017AH  25326.34411533  .00012907  00000+0  88288-3 0  9994","satellite_name":"STARLINK-2170"},{"norad_id":"47754","company":"STARLINK","tle_line2":"2 47754  53.0548 324.5810 0005247  47.5748 257.2795 15.41089342  5784","launch_date":"2021-03-04","type":"LEO","tle_line1":"1 47754U 21017AJ  25327.00002315  .00136515  00000+0  32018-2 0  9994","satellite_name":"STARLINK-2171"},{"norad_id":"47760","company":"STARLINK","tle_line2":"2 47760  53.0547 340.3039 0001500  92.4588 267.6573 15.06396758261548","launch_date":"2021-03-04","type":"LEO","tle_line1":"1 47760U 21017AQ  25327.05828117 -.00000103  00000+0  11951-4 0  9991","satellite_name":"STARLINK-2178"},{"norad_id":"47762","company":"STARLINK","tle_line2":"2 47762  53.0546 348.0400 0001385  90.7446 269.3702 15.06415781261373","launch_date":"2021-03-04","type":"LEO","tle_line1":"1 47762U 21017AS  25326.45148166  .00005264  00000+0  37188-3 0  9996","satellite_name":"STARLINK-2180"}]