[{"OBJECT_NAME":"STARLINK-2143","OBJECT_ID":"2021-017M","EPOCH":"2025-11-22T08:56:41.870976","MEAN_MOTION":15.06387738,"ECCENTRICITY":0.00015227,"INCLINATION":53.0555,"RA_OF_ASC_NODE":343.381,"ARG_OF_PERICENTER":102.3749,"MEAN_ANOMALY":257.7411,"EPHEMERIS_TYPE":0,"CLASSIFICATION_TYPE":"U","NORAD_CAT_ID":47733,"ELEMENT_SET_NO":999,"REV_AT_EPOCH":26146,"BSTAR":-0.00011861118,"MEAN_MOTION_DOT":-2.047e-5,"MEAN_MOTION_DDOT":0},{"OBJECT_NAME":"STARLINK-2144","OBJECT_ID":"2021-017N","EPOCH":"2025-11-22T07:49:00.564672","MEAN_MOTION":15.06406454,"ECCENTRICITY":0.00012134,"INCLINATION":53.0552,"RA_OF_ASC_NODE":333.5928,"ARG_OF_PERICENTER":88.19,"MEAN_ANOMALY":271.9228,"EPHEMERIS_TYPE":0,"CLASSIFICATION_TYPE":"U","NORAD_CAT_ID":47734,"ELEMENT_SET_NO":999,"REV_AT_EPOCH":26156,"BSTAR":0.00016793352,"MEAN_MOTION_DOT":2.221e-5,"MEAN_MOTION_DDOT":0},{"OBJECT_NAME":"STARLINK-2147","OBJECT_ID":"2021-017Q","EPOCH":"2025-11-22T05:27:02.091456","MEAN_MOTION":15.06405507,"ECCENTRICITY":0.00015482,"INCLINATION":53.055,"RA_OF_ASC_NODE":324.0367,"ARG_OF_PERICENTER":98.129,"MEAN_ANOMALY":261.9875,"EPHEMERIS_TYPE":0,"CLASSIFICATION_TYPE":"U","NORAD_CAT_ID":47736,"ELEMENT_SET_NO":999,"REV_AT_EPOCH":26172,"BSTAR":0.00019155834,"MEAN_MOTION_DOT":2.573e-5,"MEAN_MOTION_DDOT":0},{"OBJECT_NAME":"STARLINK-2150","OBJECT_ID":"2021-017T","EPOCH":"2025-11-23T02:03:03.716352","MEAN_MOTION":15.06396592,"ECCENTRICITY":0.0001507,"INCLINATION":53.0553,"RA_OF_ASC_NODE":345.183,"ARG_OF_PERICENTER":84.4173,"MEAN_ANOMALY":275.6988,"EPHEMERIS_TYPE":0,"CLASSIFICATION_TYPE":"U","NORAD_CAT_ID":47739,"ELEMENT_SET_NO":999,"REV_AT_EPOCH":26150,"BSTAR":-0.00014756,"MEAN_MOTION_DOT":-2.478e-5,"MEAN_MOTION_DDOT":0},{"OBJECT_NAME":"STARLINK-2156","OBJECT_ID":"2021-017W","EPOCH":"2025-11-22T05:32:19.705632","MEAN_MOTION":15.06389239,"ECCENTRICITY":0.00015052,"INCLINATION":53.0547,"RA_OF_ASC_NODE":324.0198,"ARG_OF_PERICENTER":81.9229,"MEAN_ANOMALY":278.1931,"EPHEMERIS_TYPE":0,"CLASSIFICATION_TYPE":"U","NORAD_CAT_ID":47742,"ELEMENT_SET_NO":999,"REV_AT_EPOCH":26172,"BSTAR":0.00055725232,"MEAN_MOTION_DOT":8.026e-5,"MEAN_MOTION_DDOT":0},{"OBJECT_NAME":"STARLINK-2159","OBJECT_ID":"2021-017Z","EPOCH":"2025-11-22T11:05:22.841088","MEAN_MOTION":15.06414473,"ECCENTRICITY":0.0001522,"INCLINATION":53.0552,"RA_OF_ASC_NODE":332.9816,"ARG_OF_PERICENTER":102.5855,"MEAN_ANOMALY":257.5304,"EPHEMERIS_TYPE":0,"CLASSIFICATION_TYPE":"U","NORAD_CAT_ID":47745,"ELEMENT_SET_NO":999,"REV_AT_EPOCH":26156,"BSTAR":0.0002927,"MEAN_MOTION_DOT":4.083e-5,"MEAN_MOTION_DDOT":0},{"OBJECT_NAME":"STARLINK-2160","OBJECT_ID":"2021-017AA","EPOCH":"2025-11-22T10:54:46.721088","MEAN_MOTION":15.06410789,"ECCENTRICITY":0.0001542,"INCLINATION":53.055,"RA_OF_ASC_NODE":333.0147,"ARG_OF_PERICENTER":93.2508,"MEAN_ANOMALY":266.8657,"EPHEMERIS_TYPE":0,"CLASSIFICATION_TYPE":"U","NORAD_CAT_ID":47746,"ELEMENT_SET_NO":999,"REV_AT_EPOCH":26155,"BSTAR":0.00029175,"MEAN_MOTION_DOT":4.068e-5,"MEAN_MOTION_DDOT":0},{"OBJECT_NAME":"STARLINK-2161","OBJECT_ID":"2021-017AB","EPOCH":"2025-11-22T07:39:43.181856","MEAN_MOTION":15.06417763,"ECCENTRICITY":0.00014248,"INCLINATION":53.0539,"RA_OF_ASC_NODE":323.6211,"ARG_OF_PERICENTER":91.4144,"MEAN_ANOMALY":268.7008,"EPHEMERIS_TYPE":0,"CLASSIFICATION_TYPE":"U","NORAD_CAT_ID":47747,"ELEMENT_SET_NO":999,"REV_AT_EPOCH":26171,"BSTAR":0.0006617011,"MEAN_MOTION_DOT":9.593e-5,"MEAN_MOTION_DDOT":0},{"OBJECT_NAME":"STARLINK-2162","OBJECT_ID":"2021-017AC","EPOCH":"2025-11-22T07:29:05.543808","MEAN_MOTION":15.06411311,"ECCENTRICITY":0.00013697,"INCLINATION":53.0559,"RA_OF_ASC_NODE":323.6556,"ARG_OF_PERICENTER":89.928,"MEAN_ANOMALY":270.1866,"EPHEMERIS_TYPE":0,"CLASSIFICATION_TYPE":"U","NORAD_CAT_ID":47748,"ELEMENT_SET_NO":999,"REV_AT_EPOCH":26168,"BSTAR":0.00013428729,"MEAN_MOTION_DOT":1.72e-5,"MEAN_MOTION_DDOT":0},{"OBJECT_NAME":"STARLINK-2163","OBJECT_ID":"2021-017AD","EPOCH":"2025-11-23T02:56:49.487136","MEAN_MOTION":15.0638122,"ECCENTRICITY":0.0001341,"INCLINATION":53.0537,"RA_OF_ASC_NODE":320.0123,"ARG_OF_PERICENTER":66.3984,"MEAN_ANOMALY":293.7146,"EPHEMERIS_TYPE":0,"CLASSIFICATION_TYPE":"U","NORAD_CAT_ID":47749,"ELEMENT_SET_NO":999,"REV_AT_EPOCH":26180,"BSTAR":0.00078755,"MEAN_MOTION_DOT":0.00011463,"MEAN_MOTION_DDOT":0},{"OBJECT_NAME":"STARLINK-2164","OBJECT_ID":"2021-017AE","EPOCH":"2025-11-22T08:54:01.597248","MEAN_MOTION":15.06411713,"ECCENTRICITY":0.0001489,"INCLINATION":53.0545,"RA_OF_ASC_NODE":323.3894,"ARG_OF_PERICENTER":87.0752,"MEAN_ANOMALY":273.0408,"EPHEMERIS_TYPE":0,"CLASSIFICATION_TYPE":"U","NORAD_CAT_ID":47750,"ELEMENT_SET_NO":999,"REV_AT_EPOCH":26169,"BSTAR":0.0003160129,"MEAN_MOTION_DOT":4.43e-5,"MEAN_MOTION_DDOT":0},{"OBJECT_NAME":"STARLINK-2169","OBJECT_ID":"2021-017AG","EPOCH":"2025-11-22T07:15:09.532224","MEAN_MOTION":15.06424273,"ECCENTRICITY":0.00013493,"INCLINATION":53.0551,"RA_OF_ASC_NODE":328.6986,"ARG_OF_PERICENTER":90.3892,"MEAN_ANOMALY":269.7251,"EPHEMERIS_TYPE":0,"CLASSIFICATION_TYPE":"U","NORAD_CAT_ID":47752,"ELEMENT_SET_NO":999,"REV_AT_EPOCH":26166,"BSTAR":0.00050389653,"MEAN_MOTION_DOT":7.237e-5,"MEAN_MOTION_DDOT":0},{"OBJECT_NAME":"STARLINK-2170","OBJECT_ID":"2021-017AH","EPOCH":"2025-11-22T08:15:31.564512","MEAN_MOTION":15.0643791,"ECCENTRICITY":0.00016746,"INCLINATION":53.0544,"RA_OF_ASC_NODE":333.511,"ARG_OF_PERICENTER":80.7104,"MEAN_ANOMALY":279.4074,"EPHEMERIS_TYPE":0,"CLASSIFICATION_TYPE":"U","NORAD_CAT_ID":47753,"ELEMENT_SET_NO":999,"REV_AT_EPOCH":26159,"BSTAR":0.00088288144,"MEAN_MOTION_DOT":0.00012907,"MEAN_MOTION_DDOT":0},{"OBJECT_NAME":"STARLINK-2171","OBJECT_ID":"2021-017AJ","EPOCH":"2025-11-23T00:00:02.000160","MEAN_MOTION":15.41089342,"ECCENTRICITY":0.0005247,"INCLINATION":53.0548,"RA_OF_ASC_NODE":324.581,"ARG_OF_PERICENTER":47.5748,"MEAN_ANOMALY":257.2795,"EPHEMERIS_TYPE":0,"CLASSIFICATION_TYPE":"U","NORAD_CAT_ID":47754,"ELEMENT_SET_NO":999,"REV_AT_EPOCH":578,"BSTAR":0.0032018,"MEAN_MOTION_DOT":0.00136515,"MEAN_MOTION_DDOT":0},{"OBJECT_NAME":"STARLINK-2178","OBJECT_ID":"2021-017AQ","EPOCH":"2025-11-23T01:23:55.493088","MEAN_MOTION":15.06396758,"ECCENTRICITY":0.00015,"INCLINATION":53.0547,"RA_OF_ASC_NODE":340.3039,"ARG_OF_PERICENTER":92.4588,"MEAN_ANOMALY":267.6573,"EPHEMERIS_TYPE":0,"CLASSIFICATION_TYPE":"U","NORAD_CAT_ID":47760,"ELEMENT_SET_NO":999,"REV_AT_EPOCH":26154,"BSTAR":1.1951e-5,"MEAN_MOTION_DOT":-1.03e-6,"MEAN_MOTION_DDOT":0},{"OBJECT_NAME":"STARLINK-2180","OBJECT_ID":"2021-017AS","EPOCH":"2025-11-22T10:50:08.015424","MEAN_MOTION":15.06415781,"ECCENTRICITY":0.00013857,"INCLINATION":53.0546,"RA_OF_ASC_NODE":348.04,"ARG_OF_PERICENTER":90.7446,"MEAN_ANOMALY":269.3702,"EPHEMERIS_TYPE":0,"CLASSIFICATION_TYPE":"U","NORAD_CAT_ID":47762,"ELEMENT_SET_NO":999,"REV_AT_EPOCH":26137,"BSTAR":0.00037188124,"MEAN_MOTION_DOT":5.264e-5,"MEAN_MOTION_DDOT":0}]
